{"type": "FeatureCollection", "features": [ {"type": "Feature", "properties": {"norad_id": 34432, "name": "COSMOS 2251 DEB", "group": "cosmos-2251-debris", "lat": 46.3504244571026, "lon": -111.32575741517564, "alt_km": 772.3567442919602, "timestamp": "2025-12-21T18:54:58.889931+00:00", "meta": {"OBJECT_NAME": "COSMOS 2251 DEB", "OBJECT_ID": "1993-036RZ", "EPOCH": "2025-12-21T06:27:39.783744", "MEAN_MOTION": 14.02940314, "ECCENTRICITY": 0.01817727, "INCLINATION": 73.8282, "RA_OF_ASC_NODE": 87.2975, "ARG_OF_PERICENTER": 168.6462, "MEAN_ANOMALY": 223.5224, "EPHEMERIS_TYPE": 0, "CLASSIFICATION_TYPE": "U", "NORAD_CAT_ID": 34432, "ELEMENT_SET_NO": 999, "REV_AT_EPOCH": 85804, "BSTAR": 0.00082053813, "MEAN_MOTION_DOT": 1.447e-05, "MEAN_MOTION_DDOT": 0}, "tle": {"line1": "1 34432U 93036RZ  25355.26921046  .00001447  00000+0  82054-3 0  9994", "line2": "2 34432  73.8282  87.2975 0181772 168.6462 223.5224 14.02940314858048"}}, "geometry": {"type": "Point", "coordinates": [-111.32575741517564, 46.3504244571026]}}, {"type": "Feature", "properties": {"norad_id": 34433, "name": "COSMOS 2251 DEB", "group": "cosmos-2251-debris", "lat": 57.059558214454064, "lon": -67.35233537997331, "alt_km": 944.184671732939, "timestamp": "2025-12-21T18:54:58.889940+00:00", "meta": {"OBJECT_NAME": "COSMOS 2251 DEB", "OBJECT_ID": "1993-036SA", "EPOCH": "2025-12-20T20:15:06.518880", "MEAN_MOTION": 14.12884599, "ECCENTRICITY": 0.0152723, "INCLINATION": 74.0101, "RA_OF_ASC_NODE": 140.5858, "ARG_OF_PERICENTER": 276.9549, "MEAN_ANOMALY": 81.4241, "EPHEMERIS_TYPE": 0, "CLASSIFICATION_TYPE": "U", "NORAD_CAT_ID": 34433, "ELEMENT_SET_NO": 999, "REV_AT_EPOCH": 86064, "BSTAR": 0.00076987, "MEAN_MOTION_DOT": 1.574e-05, "MEAN_MOTION_DDOT": 0}, "tle": {"line1": "1 34433U 93036SA  25354.84382545  .00001574  00000+0  76987-3 0  9992", "line2": "2 34433  74.0101 140.5858 0152723 276.9549  81.4241 14.12884599860640"}}, "geometry": {"type": "Point", "coordinates": [-67.35233537997331, 57.059558214454064]}}, {"type": "Feature", "properties": {"norad_id": 34434, "name": "COSMOS 2251 DEB", "group": "cosmos-2251-debris", "lat": -20.222617278633336, "lon": -11.306415221143356, "alt_km": 1107.3785138018866, "timestamp": "2025-12-21T18:54:58.889950+00:00", "meta": {"OBJECT_NAME": "COSMOS 2251 DEB", "OBJECT_ID": "1993-036SB", "EPOCH": "2025-12-21T12:37:05.356416", "MEAN_MOTION": 13.89857681, "ECCENTRICITY": 0.0273872, "INCLINATION": 74.0622, "RA_OF_ASC_NODE": 355.1821, "ARG_OF_PERICENTER": 130.3904, "MEAN_ANOMALY": 337.6702, "EPHEMERIS_TYPE": 0, "CLASSIFICATION_TYPE": "U", "NORAD_CAT_ID": 34434, "ELEMENT_SET_NO": 999, "REV_AT_EPOCH": 84088, "BSTAR": 0.0015500772, "MEAN_MOTION_DOT": 2.558e-05, "MEAN_MOTION_DDOT": 0}, "tle": {"line1": "1 34434U 93036SB  25355.52575644  .00002558  00000+0  15501-2 0  9990", "line2": "2 34434  74.0622 355.1821 0273872 130.3904 337.6702 13.89857681840887"}}, "geometry": {"type": "Point", "coordinates": [-11.306415221143356, -20.222617278633336]}}, {"type": "Feature", "properties": {"norad_id": 34446, "name": "COSMOS 2251 DEB", "group": "cosmos-2251-debris", "lat": -52.315673872162925, "lon": 18.570747336113957, "alt_km": 756.6627861848501, "timestamp": "2025-12-21T18:54:58.889960+00:00", "meta": {"OBJECT_NAME": "COSMOS 2251 DEB", "OBJECT_ID": "1993-036SP", "EPOCH": "2025-12-21T09:14:03.434208", "MEAN_MOTION": 14.49361872, "ECCENTRICITY": 0.00507278, "INCLINATION": 74.0417, "RA_OF_ASC_NODE": 41.0696, "ARG_OF_PERICENTER": 177.052, "MEAN_ANOMALY": 183.095, "EPHEMERIS_TYPE": 0, "CLASSIFICATION_TYPE": "U", "NORAD_CAT_ID": 34446, "ELEMENT_SET_NO": 999, "REV_AT_EPOCH": 88819, "BSTAR": 0.00010058627, "MEAN_MOTION_DOT": 3.62e-06, "MEAN_MOTION_DDOT": 0}, "tle": {"line1": "1 34446U 93036SP  25355.38476197  .00000362  00000+0  10059-3 0  9995", "line2": "2 34446  74.0417  41.0696 0050727 177.0520 183.0950 14.49361872888190"}}, "geometry": {"type": "Point", "coordinates": [18.570747336113957, -52.315673872162925]}}, {"type": "Feature", "properties": {"norad_id": 34449, "name": "COSMOS 2251 DEB", "group": "cosmos-2251-debris", "lat": 36.99818478100426, "lon": -140.15626088628716, "alt_km": 568.6163441530152, "timestamp": "2025-12-21T18:54:58.889970+00:00", "meta": {"OBJECT_NAME": "COSMOS 2251 DEB", "OBJECT_ID": "1993-036SS", "EPOCH": "2025-12-21T14:01:22.624896", "MEAN_MOTION": 14.9530995, "ECCENTRICITY": 0.00227392, "INCLINATION": 74.0321, "RA_OF_ASC_NODE": 52.7148, "ARG_OF_PERICENTER": 89.8054, "MEAN_ANOMALY": 34.0385, "EPHEMERIS_TYPE": 0, "CLASSIFICATION_TYPE": "U", "NORAD_CAT_ID": 34449, "ELEMENT_SET_NO": 999, "REV_AT_EPOCH": 88825, "BSTAR": 0.0018531197, "MEAN_MOTION_DOT": 0.00020555, "MEAN_MOTION_DDOT": 0}, "tle": {"line1": "1 34449U 93036SS  25355.58428964  .00020555  00000+0  18531-2 0  9997", "line2": "2 34449  74.0321  52.7148 0022739  89.8054  34.0385 14.95309950888256"}}, "geometry": {"type": "Point", "coordinates": [-140.15626088628716, 36.99818478100426]}}, {"type": "Feature", "properties": {"norad_id": 34451, "name": "COSMOS 2251 DEB", "group": "cosmos-2251-debris", "lat": 42.75113155254787, "lon": -125.72383989078072, "alt_km": 564.9084747391935, "timestamp": "2025-12-21T18:54:58.889980+00:00", "meta": {"OBJECT_NAME": "COSMOS 2251 DEB", "OBJECT_ID": "1993-036SU", "EPOCH": "2025-12-21T07:04:57.359712", "MEAN_MOTION": 14.96011908, "ECCENTRICITY": 0.0023754, "INCLINATION": 74.0465, "RA_OF_ASC_NODE": 70.6049, "ARG_OF_PERICENTER": 85.0662, "MEAN_ANOMALY": 275.3234, "EPHEMERIS_TYPE": 0, "CLASSIFICATION_TYPE": "U", "NORAD_CAT_ID": 34451, "ELEMENT_SET_NO": 999, "REV_AT_EPOCH": 88763, "BSTAR": 0.0019638, "MEAN_MOTION_DOT": 0.00022196, "MEAN_MOTION_DDOT": 0}, "tle": {"line1": "1 34451U 93036SU  25355.29510833  .00022196  00000+0  19638-2 0  9997", "line2": "2 34451  74.0465  70.6049 0023754  85.0662 275.3234 14.96011908887636"}}, "geometry": {"type": "Point", "coordinates": [-125.72383989078072, 42.75113155254787]}}, {"type": "Feature", "properties": {"norad_id": 34452, "name": "COSMOS 2251 DEB", "group": "cosmos-2251-debris", "lat": 23.660167884697646, "lon": 171.29638223603467, "alt_km": 566.82203506929, "timestamp": "2025-12-21T18:54:58.889990+00:00", "meta": {"OBJECT_NAME": "COSMOS 2251 DEB", "OBJECT_ID": "1993-036SV", "EPOCH": "2025-12-21T12:42:09.493056", "MEAN_MOTION": 15.1189441, "ECCENTRICITY": 0.00648307, "INCLINATION": 74.0319, "RA_OF_ASC_NODE": 164.6251, "ARG_OF_PERICENTER": 238.9553, "MEAN_ANOMALY": 176.8391, "EPHEMERIS_TYPE": 0, "CLASSIFICATION_TYPE": "U", "NORAD_CAT_ID": 34452, "ELEMENT_SET_NO": 999, "REV_AT_EPOCH": 90795, "BSTAR": 0.00067957723, "MEAN_MOTION_DOT": 0.00012218, "MEAN_MOTION_DDOT": 0}, "tle": {"line1": "1 34452U 93036SV  25355.52927654  .00012218  00000+0  67958-3 0  9990", "line2": "2 34452  74.0319 164.6251 0064830 238.9553 176.8391 15.11894410907954"}}, "geometry": {"type": "Point", "coordinates": [171.29638223603467, 23.660167884697646]}}, {"type": "Feature", "properties": {"norad_id": 34454, "name": "COSMOS 2251 DEB", "group": "cosmos-2251-debris", "lat": -22.20061510274007, "lon": 87.67227339506029, "alt_km": 779.6119567513424, "timestamp": "2025-12-21T18:54:58.890000+00:00", "meta": {"OBJECT_NAME": "COSMOS 2251 DEB", "OBJECT_ID": "1993-036SX", "EPOCH": "2025-12-21T11:17:53.269152", "MEAN_MOTION": 14.38821486, "ECCENTRICITY": 0.00358707, "INCLINATION": 74.0587, "RA_OF_ASC_NODE": 261.5581, "ARG_OF_PERICENTER": 322.352, "MEAN_ANOMALY": 37.5124, "EPHEMERIS_TYPE": 0, "CLASSIFICATION_TYPE": "U", "NORAD_CAT_ID": 34454, "ELEMENT_SET_NO": 999, "REV_AT_EPOCH": 88193, "BSTAR": 0.00018623742, "MEAN_MOTION_DOT": 5.51e-06, "MEAN_MOTION_DDOT": 0}, "tle": {"line1": "1 34454U 93036SX  25355.47075543  .00000551  00000+0  18624-3 0  9990", "line2": "2 34454  74.0587 261.5581 0035870 322.3520  37.5124 14.38821486881937"}}, "geometry": {"type": "Point", "coordinates": [87.67227339506029, -22.20061510274007]}}, {"type": "Feature", "properties": {"norad_id": 34459, "name": "COSMOS 2251 DEB", "group": "cosmos-2251-debris", "lat": 35.30799580753324, "lon": -109.92651358487281, "alt_km": 888.7201478920024, "timestamp": "2025-12-21T18:54:58.890009+00:00", "meta": {"OBJECT_NAME": "COSMOS 2251 DEB", "OBJECT_ID": "1993-036TC", "EPOCH": "2025-12-21T03:18:49.772448", "MEAN_MOTION": 14.00511873, "ECCENTRICITY": 0.01921053, "INCLINATION": 74.0786, "RA_OF_ASC_NODE": 239.5333, "ARG_OF_PERICENTER": 307.4299, "MEAN_ANOMALY": 50.9486, "EPHEMERIS_TYPE": 0, "CLASSIFICATION_TYPE": "U", "NORAD_CAT_ID": 34459, "ELEMENT_SET_NO": 999, "REV_AT_EPOCH": 85829, "BSTAR": 0.00029726073, "MEAN_MOTION_DOT": 4.93e-06, "MEAN_MOTION_DDOT": 0}, "tle": {"line1": "1 34459U 93036TC  25355.13807607  .00000493  00000+0  29726-3 0  9992", "line2": "2 34459  74.0786 239.5333 0192105 307.4299  50.9486 14.00511873858293"}}, "geometry": {"type": "Point", "coordinates": [-109.92651358487281, 35.30799580753324]}}, {"type": "Feature", "properties": {"norad_id": 34464, "name": "COSMOS 2251 DEB", "group": "cosmos-2251-debris", "lat": -6.104778247317056, "lon": 57.26759420595369, "alt_km": 488.4077317756264, "timestamp": "2025-12-21T18:54:58.890019+00:00", "meta": {"OBJECT_NAME": "COSMOS 2251 DEB", "OBJECT_ID": "1993-036TH", "EPOCH": "2025-12-21T11:05:18.165120", "MEAN_MOTION": 15.28193165, "ECCENTRICITY": 0.00146489, "INCLINATION": 73.9905, "RA_OF_ASC_NODE": 59.7213, "ARG_OF_PERICENTER": 242.0333, "MEAN_ANOMALY": 117.9387, "EPHEMERIS_TYPE": 0, "CLASSIFICATION_TYPE": "U", "NORAD_CAT_ID": 34464, "ELEMENT_SET_NO": 999, "REV_AT_EPOCH": 89973, "BSTAR": 0.0021789869, "MEAN_MOTION_DOT": 0.00060526, "MEAN_MOTION_DDOT": 0}, "tle": {"line1": "1 34464U 93036TH  25355.46201580  .00060526  00000+0  21790-2 0  9997", "line2": "2 34464  73.9905  59.7213 0014648 242.0333 117.9387 15.28193165899736"}}, "geometry": {"type": "Point", "coordinates": [57.26759420595369, -6.104778247317056]}}]}